ONEWEB-0349             
1 49281U 21090C   26009.06274743  .00000032  00000+0  47161-4 0  9993
2 49281  87.9228 306.1818 0001689  77.3232 282.8090 13.20771019208827
ONEWEB-0353             
1 49282U 21090D   26008.89618765 -.00000181  00000+0 -52392-3 0  9998
2 49282  87.9021 321.4438 0001811  70.1980 289.9344 13.14502271206659
ONEWEB-0356             
1 49283U 21090E   26009.06116892  .00000002  00000+0 -27640-4 0  9993
2 49283  87.9230 306.1758 0002663  77.4159 282.7272 13.20770637208823
ONEWEB-0358             
1 49284U 21090F   26009.09116082  .00000027  00000+0  34313-4 0  9999
2 49284  87.9232 306.1714 0001795  79.9485 280.1851 13.20770979209557
ONEWEB-0359             
1 49285U 21090G   26009.08800236  .00000048  00000+0  85368-4 0  9999
2 49285  87.9230 306.1701 0001769  91.0932 269.0404 13.20770477209536
ONEWEB-0360             
1 49286U 21090H   26009.07853752  .00000050  00000+0  91877-4 0  9995
2 49286  87.9228 306.1790 0001699  81.1184 279.0142 13.20771539208846
ONEWEB-0361             
1 49287U 21090J   26009.05960206  .00000136  00000+0  30185-3 0  9996
2 49287  87.9228 306.1800 0001941  78.0650 282.0700 13.20772724209293
ONEWEB-0362             
1 49288U 21090K   26009.18942146  .00000022  00000+0  22805-4 0  9999
2 49288  87.9216 336.6206 0001498  81.4113 278.7190 13.19725270205943
